INTELSAT 11 (IS-11) [PM]
1 32253C 07044B   23019.28160880 -.00000178  00000-0  00000-0 0   198
2 32253   0.3393  93.6330 0003392 227.1912 215.9493  1.00271817    11
HORIZONS-2              
1 32388C 07063B   23015.96787037 -.00000211  00000-0  00000-0 0   152
2 32388   0.0058 353.6823 0002168 327.6481  68.4422  1.00271910    15
HORIZONS-2              
1 32388C 07063B   23018.93901620 -.00000169  00000-0  00000-0 0   183
2 32388   0.0244 306.9479 0002088  19.2760  56.0721  1.00273378    10
HORIZONS-2          [PM]
1 32388C 07063B   23023.14043982 -.00000216  00000-0  00000-0 0   239
2 32388   0.0358 292.6743 0002209  38.2072 128.0747  1.00269452    19
GALAXY 18 (G-18)        
1 32951C 08024A   23015.96787037  .00000092  00000-0  00000-0 0   152
2 32951   0.0019  12.6617 0002660 291.6756  36.2412  1.00272725    10
GALAXY 18 (G-18)        
1 32951C 08024A   23018.93901620  .00000116  00000-0  00000-0 0   188
2 32951   0.0063  63.2339 0002649 244.0995  25.7706  1.00270581    13
GALAXY 18 (G-18)    [PM]
1 32951C 08024A   23022.27013889  .00000085  00000-0  00000-0 0   221
2 32951   0.0110 333.6474 0002575 335.3830 146.5510  1.00270169    17
INTELSAT 25 (IS-25)     
1 33153C 08034A   23015.96787037 -.00000131  00000-0  00000-0 0   153
2 33153   0.0064  11.1864 0002755 287.7023 133.1763  1.00272017    11
INTELSAT 25 (IS-25)     
1 33153C 08034A   23018.93901620 -.00000135  00000-0  00000-0 0   186
2 33153   0.0104 351.4285 0002555 313.6227 119.5550  1.00271992    19
INTELSAT 25 (IS-25) [PM]
1 33153C 08034A   23021.41578704 -.00000134  00000-0  00000-0 0   219
2 33153   0.0562 231.9020 0002656 220.2282 146.5486  1.00270771    14
GALAXY 19 (G-19)        
1 33376C 08045A   23015.96787037 -.00000010  00000-0  00000-0 0   158
2 33376   0.0038 359.5629 0002548 299.4501  67.5556  1.00271869    12
GALAXY 19 (G-19)        
1 33376C 08045A   23018.93901620 -.00000047  00000-0  00000-0 0   187
2 33376   0.0045  58.4409 0002474 248.5739  52.0924  1.00271382    15
GALAXY 19 (G-19)    [PM]
1 33376C 08045A   23021.50084491 -.00000139  00000-0  00000-0 0   218
2 33376   0.0001  62.2837 0002522 244.2730 257.3387  1.00269148    13
INTELSAT 14 (IS-14)     
1 36097C 09064A   23015.96787037 -.00000183  00000-0  00000-0 0   154
2 36097   0.0135  67.2104 0002276 237.5271 113.8427  1.00272068    13
INTELSAT 14 (IS-14)     
1 36097C 09064A   23018.93901620 -.00000167  00000-0  00000-0 0   185
2 36097   0.0053 359.5812 0002099 307.3758 104.1447  1.00272951    10
INTELSAT 14 (IS-14) [PM]
1 36097C 09064A   23026.87049769 -.00000183  00000-0  00000-0 0   261
2 36097   0.0086  84.1196 0002571 220.6867  89.4285  1.00273257    10
INTELSAT 15 (IS-15)     
1 36106C 09067A   23015.96787037 -.00000095  00000-0  00000-0 0   150
2 36106   0.0141   7.6538 0002071 300.3200 240.7457  1.00271927    10
INTELSAT 15 (IS-15)     
1 36106C 09067A   23018.93901620 -.00000095  00000-0  00000-0 0   189
2 36106   0.0147  41.6284 0002005 269.4050 230.2232  1.00272364    18
INTELSAT 15 (IS-15) [PM]
1 36106C 09067A   23023.70922454 -.00000096  00000-0  00000-0 0   235
2 36106   0.0276 319.3055 0002085 356.1167 147.8075  1.00269205    11
INTELSAT 16 (IS-16)     
1 36397C 10006A   23015.96787037 -.00000152  00000-0  00000-0 0   151
2 36397   0.0129   1.4042 0001868 295.0133  90.9461  1.00271136    10
INTELSAT 16 (IS-16)     
1 36397C 10006A   23018.93901620 -.00000155  00000-0  00000-0 0   183
2 36397   0.0120  40.1212 0001759 270.3642  69.4089  1.00272857    18
INTELSAT 16 (IS-16) [PM]
1 36397C 10006A   23023.15944444 -.00000100  00000-0  00000-0 0   230
2 36397   0.0288 312.3165 0001729 355.5156 155.5786  1.00270178    12
INTELSAT 17 (IS-17)     
1 37238C 10065B   23015.96787037  .00000089  00000-0  00000-0 0   159
2 37238   0.0554 254.3108 0002406  54.4347 220.8329  1.00271518    13
INTELSAT 17 (IS-17)     
1 37238C 10065B   23018.93901620  .00000084  00000-0  00000-0 0   183
2 37238   0.0527 234.1259 0002375  82.1274 205.8556  1.00270684    16
INTELSAT 17 (IS-17) [PM]
1 37238C 10065B   23019.59953704  .00000087  00000-0  00000-0 0   190
2 37238   0.0528 230.5128 0002364  87.9042  82.1279  1.00270603    15
INTELSAT NEW DAWN       
1 37392C 11016A   23015.96787037  .00000246  00000-0  00000-0 0   152
2 37392   0.0183 103.6114 0000421 162.2666 230.4994  1.00273670    18
INTELSAT NEW DAWN       
1 37392C 11016A   23018.93901620  .00000246  00000-0  00000-0 0   181
2 37392   0.0003  44.3767 0000117  83.9431   0.5598  1.00273267    13
INTELSAT NEW DAWN   [PM]
1 37392C 11016A   23022.25851852  .00000246  00000-0  00000-0 0   227
2 37392   0.0129 130.9179 0000057 212.0475 264.2192  1.00269143    14
INTELSAT 18 (IS-18)     
1 37834C 11056A   23015.96787037  .00000143  00000-0  00000-0 0   153
2 37834   0.0243 352.3068 0001746 319.9603 331.3007  1.00271908    18
INTELSAT 18 (IS-18)     
1 37834C 11056A   23018.93901620  .00000144  00000-0  00000-0 0   183
2 37834   0.0202  24.8141 0001653 289.2927 322.0056  1.00269887    15
INTELSAT 18 (IS-18) [PM]
1 37834C 11056A   23022.43965278  .00000142  00000-0  00000-0 0   225
2 37834   0.0165  12.9144 0001684 303.1607 143.6993  1.00270073    15
INTELSAT 22 (IS-22)     
1 38098C 12011A   23015.96787037  .00000031  00000-0  00000-0 0   154
2 38098   0.0003  26.3277 0002263 266.2639 243.0783  1.00272116    15
INTELSAT 22 (IS-22)     
1 38098C 12011A   23018.93901620  .00000033  00000-0  00000-0 0   185
2 38098   0.0090  69.4054 0002157 227.5611 231.2449  1.00271812    14
INTELSAT 22 (IS-22) [PM]
1 38098C 12011A   23022.22785880  .00000040  00000-0  00000-0 0   223
2 38098   0.0217 307.1395 0002239 349.6365 338.6601  1.00268402    11
INTELSAT 19 (IS-19)     
1 38356C 12030A   23015.96787037 -.00004320  00000-0  00000-0 0   158
2 38356   0.0095 333.3705 0002971 331.7952 324.4049  1.00272072    12
INTELSAT 19 (IS-19)     
1 38356C 12030A   23018.93901620  .00000007  00000-0  00000-0 0   184
2 38356   0.0014  53.0174 0002857 254.9365 314.1624  1.00270483    15
INTELSAT 19 (IS-19) [PM]
1 38356C 12030A   23022.96458333  .00000052  00000-0  00000-0 0   225
2 38356   0.0433 243.4936 0002911  67.3702 324.4078  1.00269532    13
INTELSAT 20 (IS-20)     
1 38740C 12043A   23016.00000000  .00000066  00000-0  00000-0 0   166
2 38740   0.0188 101.7079 0002371  91.2122 350.7498  1.00270882    11
INTELSAT 20 (IS-20) [PM]
1 38740C 12043A   23018.59158565  .00000066  00000-0  00000-0 0   184
2 38740   0.0589 255.0969 0002301 146.3019 357.7867  1.00272111    11
INTELSAT 20 (IS-20)     
1 38740C 12043A   23019.00000000  .00000066  00000-0  00000-0 0   192
2 38740   0.0273 100.3197 0002498  88.3315 357.9664  1.00269604    17
INTELSAT 21 (IS-21)     
1 38749C 12045A   23015.96787037 -.00000195  00000-0  00000-0 0   156
2 38749   0.0191  68.8595 0001721 228.2274 108.5012  1.00272430    10
INTELSAT 21 (IS-21) [PM]
1 38749C 12045A   23018.40972222 -.00000272  00000-0  00000-0 0   189
2 38749   0.0088 356.5314 0001616 305.9175 264.6011  1.00272436    16
INTELSAT 21 (IS-21)     
1 38749C 12045A   23018.93901620 -.00000189  00000-0  00000-0 0   188
2 38749   0.0056   8.9147 0001593 296.4376  92.7656  1.00272110    18
INTELSAT 23 (IS-23)     
1 38867C 12057A   23015.96787037 -.00000223  00000-0  00000-0 0   152
2 38867   0.0010  53.0337 0001481 302.0016  55.5372  1.00269116    16
INTELSAT 23 (IS-23)     
1 38867C 12057A   23018.93901620 -.00000200  00000-0  00000-0 0   186
2 38867   0.0130  79.2563 0001292 272.2200  51.6342  1.00272796    15
INTELSAT 23 (IS-23) [PM]
1 38867C 12057A   23020.97472222 -.00000191  00000-0  00000-0 0   206
2 38867   0.0106  89.8729 0001145 248.0943  79.9634  1.00278011    14
INTELSAT 23 (IS-23) [PM]
1 38867C 12057A   23023.11761574 -.00000194  00000-0  00000-0 0   232
2 38867   0.0073 105.2444 0001289 248.7750 117.5056  1.00270643    16
INTELSAT 30 (IS-30)     
1 40271C 14062A   23016.00000000 -.00000108  00000-0  00000-0 0   169
2 40271   0.0020  18.6608 0002507  91.9113 269.5449  1.00270818    12
INTELSAT 30 (IS-30)     
1 40271C 14062A   23019.00000000 -.00000130  00000-0  00000-0 0   190
2 40271   0.0036  52.0295 0002638  54.6907 276.3446  1.00270334    11
INTELSAT 30 (IS-30) [PM]
1 40271C 14062A   23019.24641204 -.00000063  00000-0  00000-0 0   198
2 40271   0.0505 200.8669 0002759   1.1131 270.0388  1.00271494    14
INTELSAT 34 (IS-34)     
1 40874C 15039A   23016.00000000 -.00004222  00000-0  00000-0 0   164
2 40874   0.0144 325.9458 0000424 199.0244 254.7050  1.00270513    12
INTELSAT 34 (IS-34)     
1 40874C 15039A   23019.00000000 -.00000194  00000-0  00000-0 0   194
2 40874   0.0019  18.0405 0000521 132.2096 272.3643  1.00269187    16
INTELSAT 34 (IS-34) [PM]
1 40874C 15039A   23019.31353009 -.00000217  00000-0  00000-0 0   194
2 40874   0.0511 209.5263 0000737  64.3227 261.9441  1.00272988    15
INTELSAT 31 (IS-31)     
1 41581C 16035A   23016.00000000 -.00000078  00000-0  00000-0 0   162
2 41581   0.0279 264.4578 0002298 290.1121 185.5523  1.00270588    13
INTELSAT 31 (IS-31)     
1 41581C 16035A   23019.00000000 -.00000055  00000-0  00000-0 0   193
2 41581   0.0341 249.8232 0002415 300.5029 192.7426  1.00269807    15
INTELSAT 31 (IS-31) [PM]
1 41581C 16035A   23019.39094907 -.00000091  00000-0  00000-0 0   194
2 41581   0.0077 163.5785 0001904 178.9867 181.6373  1.00271956    11
INTELSAT 36 (IS-36)     
1 41747C 16053A   23016.00000000  .00000066  00000-0  00000-0 0   162
2 41747   0.0137   1.7942 0001176  12.5503 169.3267  1.00270905    19
INTELSAT 36 (IS-36)     
1 41747C 16053A   23019.00000000  .00000066  00000-0  00000-0 0   198
2 41747   0.0118  34.7077 0001207 346.5123 165.3963  1.00270825    16
INTELSAT 36 (IS-36) [PM]
1 41747C 16053A   23019.23569444  .00000066  00000-0  00000-0 0   195
2 41747   0.0465 169.4455 0001172 292.7570 169.5018  1.00271484    15
